STARLINK-4780           
1 53848U 22114AG  26068.94327879 -.00000054  00000+0  14694-4 0  9996
2 53848  53.2179 292.7207 0001385  78.1760 281.9388 15.08838121193012
LEMUR-2-AHMED-ASRAR     
1 60576U 24149DN  26068.73265438  .00013045  00000+0  79773-3 0  9992
2 60576  97.7021 152.9847 0001633  18.5035 341.6253 15.10376432 85541
