[{"OBJECT_NAME":"STARLINK-4780","OBJECT_ID":"2022-114AG","EPOCH":"2026-03-09T22:38:19.287456","MEAN_MOTION":15.08838121,"ECCENTRICITY":0.00013847,"INCLINATION":53.2179,"RA_OF_ASC_NODE":292.7207,"ARG_OF_PERICENTER":78.176,"MEAN_ANOMALY":281.9388,"EPHEMERIS_TYPE":0,"CLASSIFICATION_TYPE":"U","NORAD_CAT_ID":53848,"ELEMENT_SET_NO":999,"REV_AT_EPOCH":19301,"BSTAR":1.4693641e-5,"MEAN_MOTION_DOT":-5.4e-7,"MEAN_MOTION_DDOT":0},{"OBJECT_NAME":"LEMUR-2-AHMED-ASRAR","OBJECT_ID":"2024-149DN","EPOCH":"2026-03-09T17:35:01.338432","MEAN_MOTION":15.10376432,"ECCENTRICITY":0.00016334,"INCLINATION":97.7021,"RA_OF_ASC_NODE":152.9847,"ARG_OF_PERICENTER":18.5035,"MEAN_ANOMALY":341.6253,"EPHEMERIS_TYPE":0,"CLASSIFICATION_TYPE":"U","NORAD_CAT_ID":60576,"ELEMENT_SET_NO":999,"REV_AT_EPOCH":8554,"BSTAR":0.0007977347,"MEAN_MOTION_DOT":0.00013045,"MEAN_MOTION_DDOT":0}]
